{"spkid": "50681995", "covariance": {"epoch": "2457925.5", "labels": ["e", "q", "tp", "node", "peri", "i"], "data": [["2.875847106402998E-14", "-7.59182038690808E-14", "-1.874870386569449E-11", "7.457794361122931E-13", "-8.927288934129051E-12", "8.661841974002531E-14"], ["-7.59182038690808E-14", "2.011394188112564E-13", "5.172106748622964E-11", "-1.80467794520125E-12", "2.369612559164243E-11", "-2.230830520666222E-13"], ["-1.874870386569449E-11", "5.172106748622964E-11", "1.909553665953348E-8", "4.913943087368796E-11", "6.223926232824548E-9", "-3.911906547679387E-11"], ["7.457794361122931E-13", "-1.80467794520125E-12", "4.913943087368796E-11", "4.899911052149099E-9", "-5.005767683291049E-9", "4.455784621816947E-10"], ["-8.927288934129051E-12", "2.369612559164243E-11", "6.223926232824548E-9", "-5.005767683291049E-9", "7.600373995441663E-9", "-4.670999733771432E-10"], ["8.661841974002531E-14", "-2.230830520666222E-13", "-3.911906547679387E-11", "4.455784621816947E-10", "-4.670999733771432E-10", "7.767081265493613E-11"]], "elements": [{"label": "e", "units": null, "value": ".6930983954411615", "title": "eccentricity", "sigma": 1.69583227543381e-07, "name": "e"}, {"label": "q", "name": "q", "sigma": 4.48485695213634e-07, "value": ".743395482039766", "title": "perihelion distance", "units": "au"}, {"value": "2458199.882052765373", "title": "time of perihelion passage", "units": "TDB", "sigma": 0.000138186600868295, "name": "tp", "label": "tp"}, {"label": "node", "name": "om", "sigma": 6.99993646553246e-05, "units": "deg", "title": "longitude of the ascending node", "value": "301.0793567003935"}, {"label": "peri", "title": "argument of perihelion", "value": "289.4912191279993", "units": "deg", "name": "w", "sigma": 8.7180123855393e-05}, {"label": "i", "title": "inclination", "value": "2.267752500080249", "units": "deg", "sigma": 8.81310459798e-06, "name": "i"}]}, "elements": [{"label": "e", "name": "e", "sigma": "1.6405E-7", "units": null, "title": "eccentricity", "value": ".7001072494856996"}, {"sigma": "1.4112E-7", "name": "a", "title": "semi-major axis", "value": "2.407449787312133", "units": "au", "label": "a"}, {"label": "q", "title": "perihelion distance", "value": ".7219767384421032", "units": "au", "sigma": "4.293E-7", "name": "q"}, {"name": "i", "sigma": "8.8854E-6", "value": "2.384266344812397", "title": "inclination; angle with respect to x-y ecliptic plane", "units": "deg", "label": "i"}, {"value": "294.484662096753", "title": "longitude of the ascending node", "units": "deg", "name": "om", "sigma": "7.4912E-5", "label": "node"}, {"title": "argument of perihelion", "value": "296.5122026013264", "units": "deg", "name": "w", "sigma": "7.8943E-5", "label": "peri"}, {"label": "M", "units": "deg", "title": "mean anomaly", "value": "64.1235039387694", "name": "ma", "sigma": ".00010569"}, {"label": "tp", "title": "time of perihelion passage", "value": "2460957.476076292102", "units": "TDB", "sigma": ".00037922", "name": "tp"}, {"label": "period", "sigma": ".00011996", "name": "per", "units": "d", "title": "sidereal orbital period", "value": "1364.376666290487"}, {"label": "n", "title": "mean motion", "value": ".2638567551721476", "units": "deg/d", "sigma": "2.32E-8", "name": "n"}, {"label": "Q", "name": "ad", "sigma": "2.3992E-7", "value": "4.092922836182164", "title": "aphelion distance", "units": "au"}], "epoch": "2461200.5"}